IRIDIUM 112             
1 41925U 17003J   24175.56423803  .00000278  00000+0  92361-4 0  9993
2 41925  86.3967  30.7034 0001888  85.1806 274.9605 14.34216685389555
IRIDIUM 111             
1 41926U 17003K   24175.69109004 -.00000020  00000+0 -14345-4 0  9995
2 41926  86.3966  30.7047 0001695  91.5266 268.6124 14.34217433389622
IRIDIUM 113             
1 42803U 17039A   24175.60128699 -.00000056  00000+0 -27097-4 0  9998
2 42803  86.3968 264.5029 0001955  99.2679 260.8738 14.34217090367471
IRIDIUM 123             
1 42804U 17039B   24175.43345978  .00000055  00000+0  12418-4 0  9999
2 42804  86.3963 296.0828 0002030  96.1693 263.9734 14.34217243366212
IRIDIUM 120             
1 42805U 17039C   24175.73448170  .00000032  00000+0  43571-5 0  9991
2 42805  86.3959 264.3233 0002328  95.1869 264.9592 14.34217726367489
IRIDIUM 115             
1 42806U 17039D   24175.58194880  .00000509  00000+0  14521-3 0  9991
2 42806  86.4497 264.4126 0001958 103.3587 256.7832 14.43280813369897
IRIDIUM 118             
1 42807U 17039E   24175.88378426  .00000093  00000+0  26282-4 0  9991
2 42807  86.3963 295.8961 0002129  90.0569 270.0870 14.34218042366289
IRIDIUM 117             
1 42808U 17039F   24175.83304089  .00000098  00000+0  28022-4 0  9990
2 42808  86.3963 295.8817 0002118  99.9104 260.2331 14.34216848366309
